[{"OBJECT_NAME":"STARLINK-5045","OBJECT_ID":"2022-119Q","EPOCH":"2026-03-09T23:32:37.338144","MEAN_MOTION":15.08825167,"ECCENTRICITY":0.00012746,"INCLINATION":53.2201,"RA_OF_ASC_NODE":322.4523,"ARG_OF_PERICENTER":94.5813,"MEAN_ANOMALY":265.5325,"EPHEMERIS_TYPE":0,"CLASSIFICATION_TYPE":"U","NORAD_CAT_ID":53900,"ELEMENT_SET_NO":999,"REV_AT_EPOCH":19173,"BSTAR":1.1409143e-5,"MEAN_MOTION_DOT":-1.06e-6,"MEAN_MOTION_DDOT":0},{"OBJECT_NAME":"CZ-6A DEB","OBJECT_ID":"2022-151UT","EPOCH":"2026-03-09T17:50:02.810976","MEAN_MOTION":14.9898329,"ECCENTRICITY":0.00453187,"INCLINATION":98.6222,"RA_OF_ASC_NODE":145.5138,"ARG_OF_PERICENTER":180.208,"MEAN_ANOMALY":179.9129,"EPHEMERIS_TYPE":0,"CLASSIFICATION_TYPE":"U","NORAD_CAT_ID":55003,"ELEMENT_SET_NO":999,"REV_AT_EPOCH":17561,"BSTAR":0.0047870048,"MEAN_MOTION_DOT":0.00059614,"MEAN_MOTION_DDOT":0}]
